JILIN-1 GAOFEN 3A       
1 44312U 19032C   26068.74542089  .00016264  00000+0  55381-3 0  9993
2 44312  44.9746 183.2861 0002618 111.2900 248.8263 15.30271310372592
STARLINK-31051          
1 58719U 24002Q   26068.68380397 -.00001710  00000+0 -45609-4 0  9992
2 58719  53.1603 230.0143 0001004  85.2120 274.8996 15.30202741122012
